{"type": "FeatureCollection", "features": [ {"type": "Feature", "properties": {"norad_id": 32316, "name": "FENGYUN 1C DEB", "group": "fengyun-1c-debris", "lat": 29.806983023800882, "lon": -156.02404174602123, "alt_km": 735.9867106143965, "timestamp": "2025-12-17T09:00:17.434362+00:00", "meta": {"OBJECT_NAME": "FENGYUN 1C DEB", "OBJECT_ID": "1999-025CXH", "EPOCH": "2025-12-16T01:02:03.618816", "MEAN_MOTION": 14.51912038, "ECCENTRICITY": 0.00264133, "INCLINATION": 99.5289, "RA_OF_ASC_NODE": 16.9448, "ARG_OF_PERICENTER": 319.3722, "MEAN_ANOMALY": 71.4906, "EPHEMERIS_TYPE": 0, "CLASSIFICATION_TYPE": "U", "NORAD_CAT_ID": 32316, "ELEMENT_SET_NO": 999, "REV_AT_EPOCH": 95825, "BSTAR": 0.0012309088, "MEAN_MOTION_DOT": 4.932e-05, "MEAN_MOTION_DDOT": 0}, "tle": {"line1": "1 32316U 99025CXH 25350.04309744  .00004932  00000+0  12309-2 0  9990", "line2": "2 32316  99.5289  16.9448 0026413 319.3722  71.4906 14.51912038958254"}}, "geometry": {"type": "Point", "coordinates": [-156.02404174602123, 29.806983023800882]}}, {"type": "Feature", "properties": {"norad_id": 32320, "name": "FENGYUN 1C DEB", "group": "fengyun-1c-debris", "lat": 19.631728866149626, "lon": 33.14426569104114, "alt_km": 794.1362553985655, "timestamp": "2025-12-17T09:00:17.434372+00:00", "meta": {"OBJECT_NAME": "FENGYUN 1C DEB", "OBJECT_ID": "1999-025CXM", "EPOCH": "2025-12-16T08:51:30.683232", "MEAN_MOTION": 14.3615851, "ECCENTRICITY": 0.00562422, "INCLINATION": 100.3742, "RA_OF_ASC_NODE": 208.1887, "ARG_OF_PERICENTER": 37.7415, "MEAN_ANOMALY": 322.7689, "EPHEMERIS_TYPE": 0, "CLASSIFICATION_TYPE": "U", "NORAD_CAT_ID": 32320, "ELEMENT_SET_NO": 999, "REV_AT_EPOCH": 62225, "BSTAR": 0.0006139878, "MEAN_MOTION_DOT": 1.763e-05, "MEAN_MOTION_DDOT": 0}, "tle": {"line1": "1 32320U 99025CXM 25350.36910513  .00001763  00000+0  61399-3 0  9995", "line2": "2 32320 100.3742 208.1887 0056242  37.7415 322.7689 14.36158510622257"}}, "geometry": {"type": "Point", "coordinates": [33.14426569104114, 19.631728866149626]}}, {"type": "Feature", "properties": {"norad_id": 32322, "name": "FENGYUN 1C DEB", "group": "fengyun-1c-debris", "lat": -17.315875526599367, "lon": -124.71830211578714, "alt_km": 1196.0338662196027, "timestamp": "2025-12-17T09:00:17.434382+00:00", "meta": {"OBJECT_NAME": "FENGYUN 1C DEB", "OBJECT_ID": "1999-025CXP", "EPOCH": "2025-12-14T10:53:55.069440", "MEAN_MOTION": 13.34140206, "ECCENTRICITY": 0.04192174, "INCLINATION": 98.3703, "RA_OF_ASC_NODE": 230.2532, "ARG_OF_PERICENTER": 93.3217, "MEAN_ANOMALY": 271.5949, "EPHEMERIS_TYPE": 0, "CLASSIFICATION_TYPE": "U", "NORAD_CAT_ID": 32322, "ELEMENT_SET_NO": 999, "REV_AT_EPOCH": 60402, "BSTAR": 0.0014557048, "MEAN_MOTION_DOT": 1.161e-05, "MEAN_MOTION_DDOT": 0}, "tle": {"line1": "1 32322U 99025CXP 25348.45410960  .00001161  00000+0  14557-2 0  9990", "line2": "2 32322  98.3703 230.2532 0419217  93.3217 271.5949 13.34140206604023"}}, "geometry": {"type": "Point", "coordinates": [-124.71830211578714, -17.315875526599367]}}, {"type": "Feature", "properties": {"norad_id": 32323, "name": "FENGYUN 1C DEB", "group": "fengyun-1c-debris", "lat": 33.27809702776826, "lon": -40.06514676059996, "alt_km": 830.6751162403261, "timestamp": "2025-12-17T09:00:17.434392+00:00", "meta": {"OBJECT_NAME": "FENGYUN 1C DEB", "OBJECT_ID": "1999-025CXQ", "EPOCH": "2025-12-11T19:53:55.961952", "MEAN_MOTION": 13.96527739, "ECCENTRICITY": 0.0155374, "INCLINATION": 98.5708, "RA_OF_ASC_NODE": 129.0851, "ARG_OF_PERICENTER": 212.3019, "MEAN_ANOMALY": 146.8558, "EPHEMERIS_TYPE": 0, "CLASSIFICATION_TYPE": "U", "NORAD_CAT_ID": 32323, "ELEMENT_SET_NO": 999, "REV_AT_EPOCH": 60257, "BSTAR": 0.0054384, "MEAN_MOTION_DOT": 8.293e-05, "MEAN_MOTION_DDOT": 0}, "tle": {"line1": "1 32323U 99025CXQ 25345.82911993  .00008293  00000+0  54384-2 0  9996", "line2": "2 32323  98.5708 129.0851 0155374 212.3019 146.8558 13.96527739602570"}}, "geometry": {"type": "Point", "coordinates": [-40.06514676059996, 33.27809702776826]}}, {"type": "Feature", "properties": {"norad_id": 32324, "name": "FENGYUN 1C DEB", "group": "fengyun-1c-debris", "lat": 2.180332650064523, "lon": -86.23797911376764, "alt_km": 899.9862206954122, "timestamp": "2025-12-17T09:00:17.434403+00:00", "meta": {"OBJECT_NAME": "FENGYUN 1C DEB", "OBJECT_ID": "1999-025CXR", "EPOCH": "2025-12-13T12:08:45.341376", "MEAN_MOTION": 14.09148934, "ECCENTRICITY": 0.00499751, "INCLINATION": 99.5336, "RA_OF_ASC_NODE": 89.3046, "ARG_OF_PERICENTER": 22.0109, "MEAN_ANOMALY": 338.319, "EPHEMERIS_TYPE": 0, "CLASSIFICATION_TYPE": "U", "NORAD_CAT_ID": 32324, "ELEMENT_SET_NO": 999, "REV_AT_EPOCH": 64009, "BSTAR": 0.00075570965, "MEAN_MOTION_DOT": 1.278e-05, "MEAN_MOTION_DDOT": 0}, "tle": {"line1": "1 32324U 99025CXR 25347.50608034  .00001278  00000+0  75571-3 0  9991", "line2": "2 32324  99.5336  89.3046 0049975  22.0109 338.3190 14.09148934640098"}}, "geometry": {"type": "Point", "coordinates": [-86.23797911376764, 2.180332650064523]}}, {"type": "Feature", "properties": {"norad_id": 32326, "name": "FENGYUN 1C DEB", "group": "fengyun-1c-debris", "lat": 58.21637109492231, "lon": 114.16745377557038, "alt_km": 712.7246460575843, "timestamp": "2025-12-17T09:00:17.434413+00:00", "meta": {"OBJECT_NAME": "FENGYUN 1C DEB", "OBJECT_ID": "1999-025CXT", "EPOCH": "2025-12-13T00:57:43.680960", "MEAN_MOTION": 13.69281784, "ECCENTRICITY": 0.03865638, "INCLINATION": 98.4907, "RA_OF_ASC_NODE": 276.3849, "ARG_OF_PERICENTER": 138.5694, "MEAN_ANOMALY": 224.5462, "EPHEMERIS_TYPE": 0, "CLASSIFICATION_TYPE": "U", "NORAD_CAT_ID": 32326, "ELEMENT_SET_NO": 999, "REV_AT_EPOCH": 63186, "BSTAR": 0.0005592068, "MEAN_MOTION_DOT": 7.87e-06, "MEAN_MOTION_DDOT": 0}, "tle": {"line1": "1 32326U 99025CXT 25347.04008890  .00000787  00000+0  55921-3 0  9997", "line2": "2 32326  98.4907 276.3849 0386563 138.5694 224.5462 13.69281784631869"}}, "geometry": {"type": "Point", "coordinates": [114.16745377557038, 58.21637109492231]}}, {"type": "Feature", "properties": {"norad_id": 32332, "name": "FENGYUN 1C DEB", "group": "fengyun-1c-debris", "lat": -40.12517734767642, "lon": 53.192901126750286, "alt_km": 713.4182957385547, "timestamp": "2025-12-17T09:00:17.434423+00:00", "meta": {"OBJECT_NAME": "FENGYUN 1C DEB", "OBJECT_ID": "1999-025CXZ", "EPOCH": "2025-12-15T21:05:55.809024", "MEAN_MOTION": 13.97153731, "ECCENTRICITY": 0.02851681, "INCLINATION": 99.133, "RA_OF_ASC_NODE": 43.9123, "ARG_OF_PERICENTER": 304.1737, "MEAN_ANOMALY": 53.2688, "EPHEMERIS_TYPE": 0, "CLASSIFICATION_TYPE": "U", "NORAD_CAT_ID": 32332, "ELEMENT_SET_NO": 999, "REV_AT_EPOCH": 93080, "BSTAR": 0.0011409516, "MEAN_MOTION_DOT": 2.204e-05, "MEAN_MOTION_DDOT": 0}, "tle": {"line1": "1 32332U 99025CXZ 25349.87911816  .00002204  00000+0  11410-2 0  9998", "line2": "2 32332  99.1330  43.9123 0285168 304.1737  53.2688 13.97153731930809"}}, "geometry": {"type": "Point", "coordinates": [53.192901126750286, -40.12517734767642]}}, {"type": "Feature", "properties": {"norad_id": 32334, "name": "FENGYUN 1C DEB", "group": "fengyun-1c-debris", "lat": -44.618110243495714, "lon": -143.40646996144508, "alt_km": 859.1791023755723, "timestamp": "2025-12-17T09:00:17.434433+00:00", "meta": {"OBJECT_NAME": "FENGYUN 1C DEB", "OBJECT_ID": "1999-025CYB", "EPOCH": "2025-12-15T14:48:36.988992", "MEAN_MOTION": 14.01644885, "ECCENTRICITY": 0.00665058, "INCLINATION": 99.2521, "RA_OF_ASC_NODE": 44.0671, "ARG_OF_PERICENTER": 273.0077, "MEAN_ANOMALY": 86.3479, "EPHEMERIS_TYPE": 0, "CLASSIFICATION_TYPE": "U", "NORAD_CAT_ID": 32334, "ELEMENT_SET_NO": 999, "REV_AT_EPOCH": 93980, "BSTAR": 0.00027794191, "MEAN_MOTION_DOT": 3.83e-06, "MEAN_MOTION_DDOT": 0}, "tle": {"line1": "1 32334U 99025CYB 25349.61709478  .00000383  00000+0  27794-3 0  9990", "line2": "2 32334  99.2521  44.0671 0066505 273.0077  86.3479 14.01644885939802"}}, "geometry": {"type": "Point", "coordinates": [-143.40646996144508, -44.618110243495714]}}, {"type": "Feature", "properties": {"norad_id": 32340, "name": "FENGYUN 1C DEB", "group": "fengyun-1c-debris", "lat": -80.18127117551892, "lon": 63.715937801153224, "alt_km": 629.7498136629492, "timestamp": "2025-12-17T09:00:17.434443+00:00", "meta": {"OBJECT_NAME": "FENGYUN 1C DEB", "OBJECT_ID": "1999-025CYH", "EPOCH": "2025-12-15T23:11:47.571648", "MEAN_MOTION": 14.7470357, "ECCENTRICITY": 0.00336732, "INCLINATION": 98.9811, "RA_OF_ASC_NODE": 356.1161, "ARG_OF_PERICENTER": 283.6183, "MEAN_ANOMALY": 76.1273, "EPHEMERIS_TYPE": 0, "CLASSIFICATION_TYPE": "U", "NORAD_CAT_ID": 32340, "ELEMENT_SET_NO": 999, "REV_AT_EPOCH": 97244, "BSTAR": 0.0017421524, "MEAN_MOTION_DOT": 0.000117, "MEAN_MOTION_DDOT": 0}, "tle": {"line1": "1 32340U 99025CYH 25349.96652282  .00011700  00000+0  17422-2 0  9996", "line2": "2 32340  98.9811 356.1161 0033673 283.6183  76.1273 14.74703570972446"}}, "geometry": {"type": "Point", "coordinates": [63.715937801153224, -80.18127117551892]}}, {"type": "Feature", "properties": {"norad_id": 32342, "name": "FENGYUN 1C DEB", "group": "fengyun-1c-debris", "lat": 56.76825347265424, "lon": -13.628614517733869, "alt_km": 841.3687588433258, "timestamp": "2025-12-17T09:00:17.434453+00:00", "meta": {"OBJECT_NAME": "FENGYUN 1C DEB", "OBJECT_ID": "1999-025CYK", "EPOCH": "2025-12-16T22:50:09.789216", "MEAN_MOTION": 14.13400436, "ECCENTRICITY": 0.00072798, "INCLINATION": 98.67, "RA_OF_ASC_NODE": 359.428, "ARG_OF_PERICENTER": 338.9767, "MEAN_ANOMALY": 84.1154, "EPHEMERIS_TYPE": 0, "CLASSIFICATION_TYPE": "U", "NORAD_CAT_ID": 32342, "ELEMENT_SET_NO": 999, "REV_AT_EPOCH": 93777, "BSTAR": 0.00010379921, "MEAN_MOTION_DOT": 1.52e-06, "MEAN_MOTION_DDOT": 0}, "tle": {"line1": "1 32342U 99025CYK 25350.95150219  .00000152  00000+0  10380-3 0  9998", "line2": "2 32342  98.6700 359.4280 0007279 338.9767  84.1154 14.13400436937777"}}, "geometry": {"type": "Point", "coordinates": [-13.628614517733869, 56.76825347265424]}}]}